[{"OBJECT_NAME":"ION SCV-004","OBJECT_ID":"2022-002K","EPOCH":"2026-03-09T16:32:03.244416","MEAN_MOTION":15.29369331,"ECCENTRICITY":0.00072157,"INCLINATION":97.2961,"RA_OF_ASC_NODE":128.2294,"ARG_OF_PERICENTER":1.6783,"MEAN_ANOMALY":358.448,"EPHEMERIS_TYPE":0,"CLASSIFICATION_TYPE":"U","NORAD_CAT_ID":50993,"ELEMENT_SET_NO":999,"REV_AT_EPOCH":23008,"BSTAR":0.00023198467,"MEAN_MOTION_DOT":6.538e-5,"MEAN_MOTION_DDOT":0},{"OBJECT_NAME":"STARLINK-32665","OBJECT_ID":"2024-229M","EPOCH":"2026-03-09T13:47:22.776288","MEAN_MOTION":15.27580721,"ECCENTRICITY":0.0001599,"INCLINATION":42.9995,"RA_OF_ASC_NODE":271.3734,"ARG_OF_PERICENTER":246.8294,"MEAN_ANOMALY":113.2389,"EPHEMERIS_TYPE":0,"CLASSIFICATION_TYPE":"U","NORAD_CAT_ID":62203,"ELEMENT_SET_NO":999,"REV_AT_EPOCH":7054,"BSTAR":0.00096895,"MEAN_MOTION_DOT":0.00026498,"MEAN_MOTION_DDOT":0}]
